{
  "norad_id": 61947,
  "name": "STARLINK-11390 [DTC]",
  "history": [
    {
      "epoch": "2026-03-28T21:29:51.522144",
      "apogee_km": 360.4486989849702,
      "perigee_km": 358.7561788379162,
      "latitude_deg": 47.07844791544705,
      "longitude_deg": 100.69058016012423,
      "semi_major_axis_km": 6737.739438911442,
      "eccentricity": 0.0001256,
      "inclination_deg": 53.1567,
      "raan_deg": 276.6375,
      "arg_perigee_deg": 45.3819,
      "mean_anomaly_deg": 314.7301,
      "mean_motion_rev_day": 15.69753442
    }
  ]
}