{"fetched_at":"2026-03-30T06:02:59Z","count":15439,"tles":[{"name":"STARLINK-11390 [DTC]","line1":"1 61947U 24209J   26087.89573521  .00171363  00000+0  13878-2 0  9996","line2":"2 61947  53.1567 276.6375 0001256  45.3819 314.7301 15.69753442 79737","category":"Starlink"}]}